[{"OBJECT_NAME":"ICEYE-X2","OBJECT_ID":"2018-099AU","EPOCH":"2026-03-09T22:35:53.986848","MEAN_MOTION":15.16430937,"ECCENTRICITY":0.00088624,"INCLINATION":97.4491,"RA_OF_ASC_NODE":124.5633,"ARG_OF_PERICENTER":290.4063,"MEAN_ANOMALY":69.6218,"EPHEMERIS_TYPE":0,"CLASSIFICATION_TYPE":"U","NORAD_CAT_ID":43800,"ELEMENT_SET_NO":999,"REV_AT_EPOCH":39777,"BSTAR":0.00020585187,"MEAN_MOTION_DOT":3.939e-5,"MEAN_MOTION_DDOT":0},{"OBJECT_NAME":"STARLINK-5509","OBJECT_ID":"2023-094AX","EPOCH":"2026-03-09T22:00:01.999584","MEAN_MOTION":15.13845843,"ECCENTRICITY":0.00013943,"INCLINATION":43.0003,"RA_OF_ASC_NODE":28.4661,"ARG_OF_PERICENTER":253.5777,"MEAN_ANOMALY":28.6341,"EPHEMERIS_TYPE":0,"CLASSIFICATION_TYPE":"U","NORAD_CAT_ID":57263,"ELEMENT_SET_NO":999,"REV_AT_EPOCH":577,"BSTAR":0.0043906245,"MEAN_MOTION_DOT":0.00081487,"MEAN_MOTION_DDOT":0}]
